[{"OBJECT_NAME":"STARLINK-33881","OBJECT_ID":"2025-091E","EPOCH":"2026-03-09T23:46:02.215488","MEAN_MOTION":15.27586979,"ECCENTRICITY":0.00034596,"INCLINATION":43.008,"RA_OF_ASC_NODE":51.2276,"ARG_OF_PERICENTER":294.3484,"MEAN_ANOMALY":65.7007,"EPHEMERIS_TYPE":0,"CLASSIFICATION_TYPE":"U","NORAD_CAT_ID":63779,"ELEMENT_SET_NO":999,"REV_AT_EPOCH":4894,"BSTAR":0.0010132175,"MEAN_MOTION_DOT":0.00027733,"MEAN_MOTION_DDOT":0},{"OBJECT_NAME":"AIST-2 (RS43)","OBJECT_ID":"2013-015D","EPOCH":"2026-03-09T22:52:25.813056","MEAN_MOTION":15.25079544,"ECCENTRICITY":0.00239979,"INCLINATION":64.8687,"RA_OF_ASC_NODE":221.5348,"ARG_OF_PERICENTER":248.8384,"MEAN_ANOMALY":111.0181,"EPHEMERIS_TYPE":0,"CLASSIFICATION_TYPE":"U","NORAD_CAT_ID":39133,"ELEMENT_SET_NO":999,"REV_AT_EPOCH":70876,"BSTAR":0.00037899099,"MEAN_MOTION_DOT":9.402e-5,"MEAN_MOTION_DDOT":0}]
